NORAD_CAT_ID,OBJECT_NAME,OBJECT_TYPE,EPOCH,MEAN_MOTION,ECCENTRICITY,INCLINATION,RA_OF_ASC_NODE,ARG_OF_PERICENTER,MEAN_ANOMALY,BSTAR,MEAN_MOTION_DOT,MEAN_MOTION_DDOT,TLE_LINE0,TLE_LINE1,TLE_LINE2,SEMIMAJOR_AXIS,PERIOD,APOGEE,PERIGEE,DECAYED
50812.0,STARLINK-3338,PAYLOAD,2022-11-10 10:52:35,15.08842933,0.0002127,53.2176,214.5221,38.9192,321.1953,-9.4785e-05,-1.797e-05,0.0,0 STARLINK-3338,1 50812U 22001K   22314.45319419 -.00001797  00000-0 -94785-4 0  9992,2 50812  53.2176 214.5221 0002127  38.9192 321.1953 15.08842933 47089,6917.871,95.437,541.2080000000002,538.265,0.0
50812.0,STARLINK-3338,PAYLOAD,2022-11-10 17:14:08,15.08837945,0.0001973,53.2181,213.333,34.1876,325.9243,-2.8739e-05,-7.46e-06,0.0,0 STARLINK-3338,1 50812U 22001K   22314.71815257 -.00000746  00000-0 -28739-4 0  9991,2 50812  53.2181 213.3330 0001973  34.1876 325.9243 15.08837945 47124,6917.887,95.438,541.117,538.387,0.0
50812.0,STARLINK-3338,PAYLOAD,2022-11-11 02:46:26,15.08842037,0.0001886,53.2172,211.5505,37.2509,322.8614,-3.6761e-05,-8.73e-06,0.0,0 STARLINK-3338,1 50812U 22001K   22315.11559018 -.00000873  00000-0 -36761-4 0  9991,2 50812  53.2172 211.5505 0001886  37.2509 322.8614 15.08842037 48439,6917.874,95.437,541.044,538.434,0.0
50812.0,STARLINK-3338,PAYLOAD,2022-11-11 17:04:56,15.08821036,0.0002206,53.2168,208.8743,36.7054,323.4089,-5.0157e-05,-1.086e-05,0.0,0 STARLINK-3338,1 50812U 22001K   22315.71176750 -.00001086  00000-0 -50157-4 0  9997,2 50812  53.2168 208.8743 0002206  36.7054 323.4089 15.08821036 48522,6917.938,95.439,541.3290000000002,538.2769999999998,0.0
50812.0,STARLINK-3338,PAYLOAD,2022-11-11 20:15:42,15.08828628,0.0002372,53.2155,208.2791,44.1918,315.9263,-1.174e-05,-4.75e-06,0.0,0 STARLINK-3338,1 50812U 22001K   22315.84424295 -.00000475  00000-0 -11740-4 0  9997,2 50812  53.2155 208.2791 0002372  44.1918 315.9263 15.08828628 47298,6917.915,95.438,541.4209999999998,538.139,0.0
50812.0,STARLINK-3338,PAYLOAD,2022-11-12 01:01:51,15.08835301,0.0002078,53.2166,207.3863,40.7661,319.3487,1.9817e-05,2.7e-07,0.0,0 STARLINK-3338,1 50812U 22001K   22316.04295836  .00000027  00000-0  19817-4 0  9991,2 50812  53.2166 207.3863 0002078  40.7661 319.3487 15.08835301 48574,6917.895,95.438,541.197,538.322,0.0
50812.0,STARLINK-3338,PAYLOAD,2022-11-12 21:41:51,15.08847281,0.0002129,53.2171,203.5213,35.4432,324.6701,0.00011963,1.617e-05,0.0,0 STARLINK-3338,1 50812U 22001K   22316.90406614  .00001617  00000-0  11963-3 0  9993,2 50812  53.2171 203.5213 0002129  35.4432 324.6701 15.08847281 47455,6917.858,95.437,541.196,538.25,0.0
50812.0,STARLINK-3338,PAYLOAD,2022-11-13 02:28:00,15.08845364,0.0002195,53.2171,202.6294,37.6325,322.482,0.00011294,1.51e-05,0.0,0 STARLINK-3338,1 50812U 22001K   22317.10278750  .00001510  00000-0  11294-3 0  9993,2 50812  53.2171 202.6294 0002195  37.6325 322.4820 15.08845364 48732,6917.864000000001,95.437,541.247,538.211,0.0
50812.0,STARLINK-3338,PAYLOAD,2022-11-14 08:40:22,15.08826384,0.0001897,53.2166,196.9797,37.1048,323.0075,-0.0001114,-2.060000000000001e-05,0.0,0 STARLINK-3338,1 50812U 22001K   22318.36137649 -.00002060  00000-0 -11140-3 0  9996,2 50812  53.2166 196.9797 0001897  37.1048 323.0075 15.08826384 47676,6917.922,95.438,541.099,538.475,0.0
50812.0,STARLINK-3338,PAYLOAD,2022-11-14 16:37:18,15.08827653,0.0001892,53.2166,195.4922,40.612,319.5013,-5.6665e-05,-1.19e-05,0.0,0 STARLINK-3338,1 50812U 22001K   22318.69257563 -.00001190  00000-0 -56665-4 0  9995,2 50812  53.2166 195.4922 0001892  40.6120 319.5013 15.08827653 47723,6917.918000000002,95.438,541.092,538.474,0.0
50812.0,STARLINK-3338,PAYLOAD,2022-11-15 02:09:37,15.08835544,0.0002232,53.2166,193.7082,35.8839,324.2303,1.1299e-05,-1.08e-06,0.0,0 STARLINK-3338,1 50812U 22001K   22319.09001178 -.00000108  00000-0  11299-4 0  9990,2 50812  53.2166 193.7082 0002232  35.8839 324.2303 15.08835544 49032,6917.894,95.438,541.303,538.215,0.0
50812.0,STARLINK-3338,PAYLOAD,2022-11-15 08:31:09,15.08842534,0.0002233,53.2169,192.5187,37.5067,322.608,-1.9279e-05,-5.95e-06,0.0,0 STARLINK-3338,1 50812U 22001K   22319.35496867 -.00000595  00000-0 -19279-4 0  9999,2 50812  53.2169 192.5187 0002233  37.5067 322.6080 15.08842534 47827,6917.873000000001,95.437,541.2819999999998,538.193,0.0
50812.0,STARLINK-3338,PAYLOAD,2022-11-15 19:38:51,15.08833803,0.0002232,53.2165,190.437,36.8914,323.2231,0.00027131,4.032e-05,0.0,0 STARLINK-3338,1 50812U 22001K   22319.81865004  .00004032  00000-0  27131-3 0  9996,2 50812  53.2165 190.4370 0002232  36.8914 323.2231 15.08833803 47897,6917.899,95.438,541.308,538.22,0.0
50812.0,STARLINK-3338,PAYLOAD,2022-11-16 02:00:24,15.08836758,0.0002247,53.2164,189.2477,38.0237,322.0914,0.00031884,4.789e-05,0.0,0 STARLINK-3338,1 50812U 22001K   22320.08361248  .00004789  00000-0  31884-3 0  9997,2 50812  53.2164 189.2477 0002247  38.0237 322.0914 15.08836758 47930,6917.89,95.438,541.31,538.201,0.0
50812.0,STARLINK-3338,PAYLOAD,2022-11-16 14:43:29,15.08837437,0.0002385,53.2155,186.86900000000003,37.8947,322.2213,0.00013523,1.864e-05,0.0,0 STARLINK-3338,1 50812U 22001K   22320.61353608  .00001864  00000-0  13523-3 0  9998,2 50812  53.2155 186.8690 0002385  37.8947 322.2213 15.08837437 49265,6917.888000000001,95.438,541.403,538.1030000000002,0.0
50812.0,STARLINK-3338,PAYLOAD,2022-11-17 08:12:43,15.08852116,0.0002401,53.2157,183.5983,39.5984,320.5183,0.00018932,2.727e-05,0.0,0 STARLINK-3338,1 50812U 22001K   22321.34216714  .00002727  00000-0  18932-3 0  9993,2 50812  53.2157 183.5983 0002401  39.5984 320.5183 15.08852116 49375,6917.843000000003,95.437,541.369,538.047,0.0
50812.0,STARLINK-3338,PAYLOAD,2022-11-17 22:31:11,15.08843163,0.0002361,53.2156,180.9217,41.1133,319.0037,-1.454e-05,-5.2e-06,0.0,0 STARLINK-3338,1 50812U 22001K   22321.93832928 -.00000520  00000-0 -14540-4 0  9992,2 50812  53.2156 180.9217 0002361  41.1133 319.0037 15.08843163 49468,6917.871,95.437,541.369,538.102,0.0
50812.0,STARLINK-3338,PAYLOAD,2022-11-18 08:03:30,15.08842942,0.0002244,53.2159,179.1374,41.6671,318.4491,2.4322e-06,-2.5e-06,0.0,0 STARLINK-3338,1 50812U 22001K   22322.33576857 -.00000250  00000-0  24322-5 0  9992,2 50812  53.2159 179.1374 0002244  41.6671 318.4491 15.08842942 48276,6917.871,95.437,541.289,538.184,0.0
50812.0,STARLINK-3338,PAYLOAD,2022-11-18 20:46:35,15.08845491,0.0002288,53.2162,176.7589,41.6275,318.4891,5.0855e-05,5.21e-06,0.0,0 STARLINK-3338,1 50812U 22001K   22322.86568652  .00000521  00000-0  50855-4 0  9993,2 50812  53.2162 176.7589 0002288  41.6275 318.4891 15.08845491 48354,6917.864000000001,95.437,541.311,538.146,0.0
50812.0,STARLINK-3338,PAYLOAD,2022-11-18 23:57:21,15.088441,0.0002279,53.2162,176.1642,41.8376,318.279,3.0987e-05,2.05e-06,0.0,0 STARLINK-3338,1 50812U 22001K   22322.99816691  .00000205  00000-0  30987-4 0  9999,2 50812  53.2162 176.1642 0002279  41.8376 318.2790 15.08844100 49625,6917.868,95.437,541.309,538.156,0.0
50812.0,STARLINK-3338,PAYLOAD,2022-11-19 12:40:27,15.08840965,0.0002161,53.2165,173.7843,42.0419,318.0739,-1.1294e-06,-3.06e-06,0.0,0 STARLINK-3338,1 50812U 22001K   22323.52809173 -.00000306  00000-0 -11294-5 0  9991,2 50812  53.2165 173.7843 0002161  42.0419 318.0739 15.08840965 49700,6917.877,95.437,541.237,538.247,0.0
50812.0,STARLINK-3338,PAYLOAD,2022-11-19 20:37:22,15.08838782,0.0002181,53.2168,172.298,41.1352,318.9804,4.5841e-05,4.41e-06,0.0,0 STARLINK-3338,1 50812U 22001K   22323.85929107  .00000441  00000-0  45841-4 0  9999,2 50812  53.2168 172.2980 0002181  41.1352 318.9804 15.08838782 48500,6917.884,95.438,541.258,538.24,0.0
50812.0,STARLINK-3338,PAYLOAD,2022-11-19 23:48:08,15.08839876,0.0002202,53.2164,171.703,41.5726,318.5433,7.4492e-05,8.97e-06,0.0,0 STARLINK-3338,1 50812U 22001K   22323.99177024  .00000897  00000-0  74492-4 0  9996,2 50812  53.2164 171.7030 0002202  41.5726 318.5433 15.08839876 48520,6917.880999999999,95.438,541.269,538.222,0.0
50812.0,STARLINK-3338,PAYLOAD,2022-11-20 17:17:24,15.08800156,0.0002541,53.2162,168.43200000000004,53.0983,307.0242,0.000828,0.000129,0.0,0 STARLINK-3338,1 50812U 22001K   22324.72041972  .00012900  00000-0  82800-3 0  9999,2 50812  53.2162 168.4320 0002541  53.0983 307.0242 15.08800156 49882,6918.002,95.44,541.625,538.109,0.0
50812.0,STARLINK-3338,PAYLOAD,2022-11-20 20:28:10,15.08807793,0.0002485,53.2165,167.8374,43.2157,316.903,0.00072811,0.00011309,0.0,0 STARLINK-3338,1 50812U 22001K   22324.85289819  .00011309  00000-0  72811-3 0  9990,2 50812  53.2165 167.8374 0002485  43.2157 316.9030 15.08807793 48650,6917.979,95.44,541.563,538.125,0.0
50812.0,STARLINK-3338,PAYLOAD,2022-11-20 23:38:55,15.08856929,0.0002216,53.2163,167.2424,44.3321,315.7848,-6.1132e-05,-1.262e-05,0.0,0 STARLINK-3338,1 50812U 22001K   22324.98536041 -.00001262  00000-0 -61132-4 0  9990,2 50812  53.2163 167.2424 0002216  44.3321 315.7848 15.08856929 49925,6917.829000000002,95.436,541.227,538.161,0.0
50812.0,STARLINK-3338,PAYLOAD,2022-11-21 17:08:11,15.08836273,0.0002498,53.2141,163.9705,34.1315,325.9837,3.5662e-05,2.79e-06,0.0,0 STARLINK-3338,1 50812U 22001K   22325.71401644  .00000279  00000-0  35662-4 0  9996,2 50812  53.2141 163.9705 0002498  34.1315 325.9837 15.08836273 50033,6917.892,95.438,541.485,538.029,0.0
50812.0,STARLINK-3338,PAYLOAD,2022-11-21 21:54:20,15.08837481,0.0002247,53.2163,163.0791,43.9429,316.1742,6.5519e-05,7.55e-06,0.0,0 STARLINK-3338,1 50812U 22001K   22325.91273504  .00000755  00000-0  65519-4 0  9993,2 50812  53.2163 163.0791 0002247  43.9429 316.1742 15.08837481 48811,6917.888000000001,95.438,541.308,538.1990000000002,0.0
50812.0,STARLINK-3338,PAYLOAD,2022-11-22 12:12:48,15.08839231,0.0002277,53.2163,160.4029,44.5061,315.6114,5.0807e-05,5.2e-06,0.0,0 STARLINK-3338,1 50812U 22001K   22326.50889513  .00000520  00000-0  50807-4 0  9996,2 50812  53.2163 160.4029 0002277  44.5061 315.6114 15.08839231 48900,6917.8830000000025,95.438,541.323,538.173,0.0
